ONEWEB-0369             
1 49295U 21090S   23059.07352777 -.00000001  00000+0 -34754-4 0  9997
2 49295  87.9334 184.5700 0001538 100.2979 259.8327 13.19726093 68758
ONEWEB-0369             
1 49295U 21090S   23059.37679501 -.00000007  00000+0 -48566-4 0  9999
2 49295  87.9333 184.5101 0001539 100.2161 259.9145 13.19726027 67504
ONEWEB-0369             
1 49295U 21090S   23059.90751266  .00000133  00000+0  29969-3 0  9990
2 49295  87.9328 184.4054 0001516 100.7533 259.3771 13.19725208 67573
ONEWEB-0369             
1 49295U 21090S   23060.36241187  .00000159  00000+0  36593-3 0  9997
2 49295  87.9326 184.3147 0001558 101.2405 258.8903 13.19727100 68927
ONEWEB-0369             
1 49295U 21090S   23060.89313028  .00000009  00000+0 -87297-5 0  9993
2 49295  87.9326 184.2100 0001557 101.3255 258.8053 13.19725901 67706
ONEWEB-0369             
1 49295U 21090S   23061.80293133 -.00000014  00000+0 -67672-4 0  9990
2 49295  87.9326 184.0305 0001522  97.8830 262.2476 13.19725822 67824
ONEWEB-0369             
1 49295U 21090S   23061.80293133 -.00000014  00000+0 -67672-4 0  9990
2 49295  87.9326 184.0305 0001522  97.8830 262.2476 13.19725822 69118
ONEWEB-0369             
1 49295U 21090S   23062.33364737  .00000075  00000+0  15514-3 0  9990
2 49295  87.9326 183.9257 0001520  98.3458 261.7847 13.19726894 67891
ONEWEB-0369             
1 49295U 21090S   23062.86436513 -.00000027  00000+0 -10028-3 0  9994
2 49295  87.9329 183.8209 0001508  98.7292 261.4011 13.19726234 67962
